{"type": "FeatureCollection", "features": [{"type": "Feature", "properties": {"codigo_ibge": "3550308", "nome": "Sao Paulo"}, "geometry": {"type": "Polygon", "coordinates": [[[-46.6119, -23.9678], [-46.6116, -23.9665], [-46.6104, -23.9659], [-46.6082, -23.9636], [-46.6097, -23.9603], [-46.6088, -23.959], [-46.6066, -23.9573], [-46.6073, -23.9565], [-46.6073, -23.9537], [-46.6079, -23.9535], [-46.6111, -23.9511], [-46.6092, -23.9488], [-46.6078, -23.9485], [-46.6078, -23.9458], [-46.6071, -23.9448], [-46.6088, -23.9413], [-46.6079, -23.9406], [-46.6071, -23.9387], [-46.6083, -23.9372], [-46.6098, -23.937], [-46.6114, -23.9379], [-46.613, -23.9381], [-46.6138, -23.9369], [-46.6154, -23.9368], [-46.6164, -23.9353], [-46.6169, -23.9336], [-46.6164, -23.9306], [-46.6144, -23.9314], [-46.6119, -23.9298], [-46.6116, -23.928], [-46.6094, -23.9277], [-46.6107, -23.9243], [-46.6091, -23.9229], [-46.6091, -23.9203], [-46.6101, -23.9191], [-46.61, -23.918], [-46.6087, -23.9159], [-46.6088, -23.915], [-46.6117, -23.9144], [-46.6116, -23.9107], [-46.6128, -23.9087], [-46.6117, -23.9079], [-46.6093, -23.9046], [-46.6133, -23.9055], [-46.6142, -23.9011], [-46.6153, -23.9], [-46.6157, -23.8972], [-46.6154, -23.8958], [-46.616, -23.8948], [-46.6165, -23.8921], [-46.6177, -23.8888], [-46.618, -23.8852], [-46.6176, -23.8844], [-46.6167, -23.8798], [-46.6171, -23.8788], [-46.6156, -23.8763], [-46.617, -23.8695], [-46.6165, -23.8651], [-46.6169, -23.862], [-46.6187, -23.8607], [-46.6227, -23.8584], [-46.6247, -23.8567], [-46.6295, -23.8545], [-46.6318, -23.8526], [-46.6326, -23.8511], [-46.6351, -23.8385], [-46.635, -23.836], [-46.6341, -23.8341], [-46.6342, -23.8317], [-46.6338, -23.8295], [-46.6324, -23.8272], [-46.6277, -23.822], [-46.6248, -23.8195], [-46.6244, -23.8188], [-46.6234, -23.8135], [-46.6231, -23.802], [-46.6228, -23.7862], [-46.6235, -23.784], [-46.6251, -23.7816], [-46.6436, -23.7594], [-46.6455, -23.7572], [-46.647, -23.7537], [-46.6474, -23.7505], [-46.649, -23.7407], [-46.6506, -23.7358], [-46.652, -23.7308], [-46.6513, -23.731], [-46.6501, -23.7301], [-46.6465, -23.7289], [-46.6403, -23.7273], [-46.6365, -23.7253], [-46.6322, -23.7209], [-46.6302, -23.7192], [-46.6276, -23.7163], [-46.6257, -23.7164], [-46.6225, -23.7158], [-46.6182, -23.7127], [-46.6164, -23.7105], [-46.617, -23.7084], [-46.6185, -23.7073], [-46.6212, -23.7072], [-46.6229, -23.7054], [-46.6244, -23.7052], [-46.624, -23.7025], [-46.625, -23.7021], [-46.6263, -23.7029], [-46.6273, -23.701], [-46.6285, -23.7003], [-46.6289, -23.6979], [-46.6317, -23.6964], [-46.6316, -23.6939], [-46.6325, -23.6932], [-46.6326, -23.6917], [-46.6351, -23.6913], [-46.6357, -23.6899], [-46.6339, -23.688], [-46.633, -23.6845], [-46.6336, -23.6824], [-46.6333, -23.6816], [-46.6306, -23.6799], [-46.6305, -23.6771], [-46.6311, -23.6729], [-46.6285, -23.6709], [-46.6271, -23.6685], [-46.6268, -23.666], [-46.6268, -23.6632], [-46.6264, -23.6596], [-46.6251, -23.6593], [-46.6228, -23.6613], [-46.6224, -23.6605], [-46.62, -23.6593], [-46.6197, -23.6584], [-46.6172, -23.6573], [-46.6163, -23.658], [-46.6144, -23.6603], [-46.6102, -23.6586], [-46.6068, -23.6563], [-46.6038, -23.6561], [-46.6022, -23.6543], [-46.5989, -23.653], [-46.5966, -23.6529], [-46.5955, -23.6517], [-46.5931, -23.6507], [-46.59, -23.6489], [-46.5846, -23.6452], [-46.5834, -23.641], [-46.5849, -23.6353], [-46.5846, -23.6341], [-46.5824, -23.6325], [-46.5814, -23.6288], [-46.5831, -23.626], [-46.5822, -23.6208], [-46.5793, -23.6045], [-46.5794, -23.6019], [-46.5788, -23.6008], [-46.5775, -23.6003], [-46.5748, -23.6011], [-46.5683, -23.6051], [-46.5654, -23.6073], [-46.558, -23.6118], [-46.5566, -23.612], [-46.5543, -23.6107], [-46.5533, -23.609], [-46.5507, -23.6061], [-46.5497, -23.6056], [-46.548, -23.6061], [-46.5467, -23.6057], [-46.5448, -23.6079], [-46.5345, -23.6144], [-46.5322, -23.6141], [-46.5311, -23.6147], [-46.5293, -23.6138], [-46.5214, -23.614], [-46.5207, -23.6152], [-46.5183, -23.6161], [-46.5178, -23.6173], [-46.5159, -23.6183], [-46.5131, -23.619], [-46.5116, -23.6218], [-46.5098, -23.6237], [-46.5062, -23.6258], [-46.5027, -23.6254], [-46.5001, -23.6238], [-46.4987, -23.6238], [-46.4972, -23.6249], [-46.4959, -23.6243], [-46.4931, -23.6254], [-46.4923, -23.6243], [-46.4905, -23.6246], [-46.4878, -23.624], [-46.4868, -23.6229], [-46.4855, -23.623], [-46.4845, -23.6238], [-46.4822, -23.6237], [-46.4791, -23.6255], [-46.4772, -23.6262], [-46.4765, -23.6297], [-46.4754, -23.6308], [-46.4756, -23.6327], [-46.4751, -23.6346], [-46.4736, -23.6365], [-46.4737, -23.6373], [-46.4723, -23.6388], [-46.4631, -23.6388], [-46.4606, -23.6402], [-46.4582, -23.6419], [-46.4559, -23.6411], [-46.454, -23.6409], [-46.4525, -23.6424], [-46.4474, -23.6436], [-46.4431, -23.6439], [-46.4409, -23.6422], [-46.4383, -23.6419], [-46.436, -23.6413], [-46.4329, -23.6418], [-46.4315, -23.6411], [-46.4319, -23.6391], [-46.4317, -23.6374], [-46.4302, -23.6362], [-46.4279, -23.637], [-46.4243, -23.6407], [-46.4245, -23.643], [-46.4233, -23.6443], [-46.4211, -23.6437], [-46.4213, -23.6424], [-46.4201, -23.641], [-46.4184, -23.6414], [-46.4162, -23.6406], [-46.4145, -23.6392], [-46.4138, -23.636], [-46.4118, -23.6355], [-46.4102, -23.6339], [-46.4088, -23.6335], [-46.4068, -23.6318], [-46.4064, -23.6298], [-46.4074, -23.6287], [-46.408, -23.6269], [-46.4066, -23.6236], [-46.4051, -23.6232], [-46.4037, -23.6237], [-46.4014, -23.6224], [-46.4003, -23.6205], [-46.3982, -23.619], [-46.3977, -23.6158], [-46.3955, -23.6143], [-46.3948, -23.6125], [-46.3961, -23.6093], [-46.3986, -23.608], [-46.3994, -23.6058], [-46.3971, -23.6043], [-46.3954, -23.6022], [-46.3935, -23.6017], [-46.392, -23.603], [-46.3908, -23.6032], [-46.3902, -23.602], [-46.3872, -23.6009], [-46.3845, -23.6007], [-46.3831, -23.5995], [-46.3831, -23.598], [-46.3842, -23.596], [-46.383, -23.5944], [-46.3827, -23.5921], [-46.3822, -23.5909], [-46.38, -23.5884], [-46.3778, -23.5892], [-46.3776, -23.5878], [-46.3798, -23.5852], [-46.3798, -23.5838], [-46.382, -23.5807], [-46.3835, -23.5803], [-46.3835, -23.5778], [-46.3817, -23.577], [-46.3796, -23.5767], [-46.3778, -23.5749], [-46.379, -23.5741], [-46.3811, -23.5736], [-46.3814, -23.5726], [-46.3827, -23.5722], [-46.3835, -23.5708], [-46.3835, -23.5688], [-46.3825, -23.5682], [-46.3826, -23.5666], [-46.3804, -23.5649], [-46.3799, -23.5625], [-46.3824, -23.563], [-46.3869, -23.5618], [-46.3889, -23.561], [-46.3909, -23.5597], [-46.3928, -23.5558], [-46.3925, -23.5543], [-46.3932, -23.5522], [-46.3951, -23.5509], [-46.3945, -23.5492], [-46.392, -23.5493], [-46.3882, -23.5472], [-46.3877, -23.5457], [-46.3887, -23.5434], [-46.3904, -23.5414], [-46.392, -23.5403], [-46.3937, -23.5372], [-46.3938, -23.5338], [-46.3945, -23.532], [-46.3956, -23.5309], [-46.3941, -23.5296], [-46.3923, -23.5305], [-46.3908, -23.5294], [-46.3898, -23.5279], [-46.3867, -23.526], [-46.3843, -23.5237], [-46.386, -23.523], [-46.3866, -23.5216], [-46.3831, -23.5204], [-46.3826, -23.5186], [-46.3808, -23.5168], [-46.3796, -23.5162], [-46.3768, -23.5161], [-46.3744, -23.5153], [-46.3745, -23.5138], [-46.3753, -23.5131], [-46.3732, -23.5114], [-46.3707, -23.5112], [-46.3664, -23.5122], [-46.3658, -23.5099], [-46.366, -23.5087], [-46.3651, -23.5038], [-46.3672, -23.5], [-46.3693, -23.4975], [-46.3699, -23.495], [-46.3716, -23.4924], [-46.3737, -23.4898], [-46.3769, -23.4848], [-46.3786, -23.481], [-46.3787, -23.4788], [-46.3798, -23.478], [-46.3812, -23.4756], [-46.3819, -23.4721], [-46.3843, -23.4741], [-46.3836, -23.4755], [-46.3867, -23.4747], [-46.3863, -23.4758], [-46.387, -23.4768], [-46.3863, -23.4797], [-46.3878, -23.482], [-46.3887, -23.4823], [-46.3919, -23.4806], [-46.3952, -23.4827], [-46.3966, -23.4842], [-46.3997, -23.4832], [-46.4009, -23.4856], [-46.4011, -23.4868], [-46.4034, -23.485], [-46.4057, -23.4861], [-46.4066, -23.4851], [-46.4062, -23.4816], [-46.404, -23.4808], [-46.4056, -23.4794], [-46.4044, -23.4781], [-46.4059, -23.4763], [-46.4064, -23.4775], [-46.4081, -23.4769], [-46.4085, -23.4755], [-46.4097, -23.4741], [-46.4077, -23.4729], [-46.4078, -23.4722], [-46.4101, -23.4716], [-46.4106, -23.4704], [-46.4121, -23.4705], [-46.4152, -23.4726], [-46.4184, -23.473], [-46.419, -23.4744], [-46.4217, -23.4731], [-46.4248, -23.4727], [-46.4265, -23.472], [-46.4299, -23.4734], [-46.4298, -23.4758], [-46.4333, -23.4772], [-46.4335, -23.4764], [-46.436, -23.4757], [-46.4363, -23.4769], [-46.4352, -23.4786], [-46.4376, -23.4798], [-46.4396, -23.4801], [-46.442, -23.4794], [-46.4467, -23.4808], [-46.4513, -23.4818], [-46.4572, -23.4828], [-46.4585, -23.4825], [-46.4605, -23.483], [-46.4633, -23.4828], [-46.4659, -23.4823], [-46.4713, -23.4802], [-46.4749, -23.4784], [-46.4784, -23.4776], [-46.48, -23.4769], [-46.4855, -23.4771], [-46.4886, -23.4776], [-46.4938, -23.476], [-46.4989, -23.4769], [-46.503, -23.4773], [-46.5078, -23.4784], [-46.5111, -23.4788], [-46.5127, -23.4797], [-46.5164, -23.4813], [-46.5187, -23.4825], [-46.5203, -23.4842], [-46.5218, -23.4843], [-46.5233, -23.4855], [-46.5261, -23.4891], [-46.5285, -23.4912], [-46.5339, -23.4934], [-46.5363, -23.4964], [-46.5396, -23.4987], [-46.5414, -23.5004], [-46.5417, -23.5015], [-46.5436, -23.5037], [-46.5459, -23.5059], [-46.547, -23.5064], [-46.5509, -23.507], [-46.5533, -23.5078], [-46.5555, -23.5101], [-46.5591, -23.5071], [-46.5594, -23.5044], [-46.5621, -23.5], [-46.562, -23.4992], [-46.5605, -23.4964], [-46.56, -23.494], [-46.5599, -23.4897], [-46.5609, -23.4881], [-46.5614, -23.4841], [-46.561, -23.4816], [-46.5613, -23.4793], [-46.5608, -23.4777], [-46.561, -23.4756], [-46.5617, -23.4743], [-46.5617, -23.4728], [-46.5634, -23.4705], [-46.5653, -23.4687], [-46.5666, -23.4656], [-46.5678, -23.4647], [-46.5693, -23.4608], [-46.5705, -23.4588], [-46.5707, -23.4569], [-46.5704, -23.4542], [-46.5685, -23.4516], [-46.5686, -23.4494], [-46.567, -23.4467], [-46.5668, -23.4424], [-46.5653, -23.4415], [-46.5653, -23.4388], [-46.5649, -23.4357], [-46.5666, -23.435], [-46.5674, -23.4332], [-46.5685, -23.4324], [-46.5676, -23.4313], [-46.567, -23.4295], [-46.5657, -23.4274], [-46.5667, -23.4219], [-46.5661, -23.4188], [-46.5654, -23.4181], [-46.5669, -23.4164], [-46.5666, -23.4154], [-46.5631, -23.4131], [-46.5616, -23.4131], [-46.5598, -23.4108], [-46.5581, -23.4111], [-46.5564, -23.4096], [-46.5561, -23.408], [-46.5565, -23.4051], [-46.555, -23.4016], [-46.5563, -23.3986], [-46.5561, -23.3974], [-46.5538, -23.3949], [-46.5518, -23.3921], [-46.5501, -23.3911], [-46.5473, -23.3879], [-46.5456, -23.387], [-46.5457, -23.3856], [-46.5445, -23.3841], [-46.5447, -23.3808], [-46.5451, -23.3795], [-46.5452, -23.3768], [-46.5443, -23.3753], [-46.542, -23.3739], [-46.5389, -23.3706], [-46.5371, -23.3691], [-46.5377, -23.3668], [-46.5364, -23.3639], [-46.5354, -23.3633], [-46.5388, -23.3617], [-46.5405, -23.3605], [-46.5418, -23.3586], [-46.5434, -23.3575], [-46.547, -23.3577], [-46.5497, -23.3564], [-46.5518, -23.3577], [-46.5534, -23.3612], [-46.5552, -23.3638], [-46.558, -23.3654], [-46.5604, -23.3688], [-46.5638, -23.3699], [-46.566, -23.3715], [-46.5685, -23.3757], [-46.5702, -23.3761], [-46.5733, -23.3755], [-46.5758, -23.3739], [-46.5796, -23.3737], [-46.5807, -23.3746], [-46.581, -23.3769], [-46.5833, -23.3774], [-46.5841, -23.3789], [-46.5862, -23.3807], [-46.5886, -23.3813], [-46.5896, -23.3826], [-46.5928, -23.3849], [-46.5953, -23.3855], [-46.6002, -23.3882], [-46.6009, -23.3891], [-46.6005, -23.3909], [-46.5986, -23.3929], [-46.5995, -23.3951], [-46.6047, -23.3973], [-46.6058, -23.398], [-46.6091, -23.4018], [-46.6123, -23.4074], [-46.6114, -23.4102], [-46.6134, -23.4108], [-46.6143, -23.4117], [-46.6136, -23.4148], [-46.6125, -23.4167], [-46.6132, -23.4177], [-46.6193, -23.4183], [-46.6208, -23.417], [-46.6232, -23.417], [-46.6216, -23.4194], [-46.6212, -23.421], [-46.6218, -23.4227], [-46.6261, -23.4229], [-46.6274, -23.4234], [-46.6294, -23.4257], [-46.6311, -23.4267], [-46.6315, -23.4283], [-46.6343, -23.4293], [-46.6357, -23.4276], [-46.6386, -23.4273], [-46.6427, -23.4276], [-46.6455, -23.4282], [-46.6469, -23.4292], [-46.6513, -23.4292], [-46.6553, -23.4309], [-46.6571, -23.4305], [-46.6599, -23.4262], [-46.6608, -23.4254], [-46.6642, -23.424], [-46.6667, -23.421], [-46.6698, -23.4186], [-46.6725, -23.4192], [-46.676, -23.4159], [-46.6778, -23.4156], [-46.6799, -23.4169], [-46.6823, -23.4177], [-46.6847, -23.4193], [-46.6854, -23.4235], [-46.6854, -23.4255], [-46.6866, -23.427], [-46.6885, -23.426], [-46.6916, -23.4231], [-46.6929, -23.4228], [-46.6952, -23.4242], [-46.6967, -23.4243], [-46.699, -23.4239], [-46.7004, -23.4225], [-46.6999, -23.4188], [-46.7001, -23.4173], [-46.7023, -23.4175], [-46.7073, -23.4165], [-46.7085, -23.4165], [-46.7093, -23.4144], [-46.7093, -23.4106], [-46.71, -23.4074], [-46.7106, -23.4065], [-46.714, -23.4073], [-46.7157, -23.4074], [-46.7179, -23.4061], [-46.7199, -23.4037], [-46.7203, -23.4015], [-46.7196, -23.3993], [-46.7203, -23.3975], [-46.7217, -23.3963], [-46.7251, -23.3948], [-46.727, -23.3949], [-46.7305, -23.3939], [-46.7336, -23.3909], [-46.7355, -23.3881], [-46.7371, -23.3889], [-46.7418, -23.3896], [-46.7428, -23.3893], [-46.7463, -23.3896], [-46.75, -23.3893], [-46.7511, -23.3901], [-46.7535, -23.3893], [-46.7541, -23.3877], [-46.7569, -23.3866], [-46.7605, -23.386], [-46.7613, -23.3871], [-46.7634, -23.3861], [-46.7641, -23.3849], [-46.7656, -23.3864], [-46.7672, -23.3867], [-46.7681, -23.3877], [-46.7702, -23.3887], [-46.7705, -23.3914], [-46.77, -23.3923], [-46.7709, -23.3953], [-46.7708, -23.3972], [-46.7741, -23.3971], [-46.7755, -23.3968], [-46.7772, -23.398], [-46.7773, -23.3989], [-46.7809, -23.3981], [-46.782, -23.3989], [-46.7834, -23.3987], [-46.7841, -23.3997], [-46.7826, -23.4034], [-46.7832, -23.4041], [-46.7849, -23.404], [-46.786, -23.405], [-46.7879, -23.4037], [-46.7888, -23.4038], [-46.7897, -23.4023], [-46.7911, -23.4025], [-46.7926, -23.3999], [-46.7937, -23.3996], [-46.7973, -23.4016], [-46.7989, -23.4021], [-46.8006, -23.4014], [-46.7987, -23.4002], [-46.7987, -23.399], [-46.8006, -23.3971], [-46.8014, -23.3956], [-46.8029, -23.3966], [-46.8058, -23.3969], [-46.8075, -23.3982], [-46.8075, -23.3993], [-46.8102, -23.3997], [-46.8123, -23.3988], [-46.8131, -23.3999], [-46.815, -23.4001], [-46.8173, -23.3994], [-46.8199, -23.4002], [-46.82, -23.4013], [-46.822, -23.4015], [-46.823, -23.401], [-46.8255, -23.4044], [-46.8242, -23.4062], [-46.8245, -23.4073], [-46.8262, -23.4089], [-46.8246, -23.411], [-46.8222, -23.4122], [-46.8217, -23.414], [-46.8204, -23.4153], [-46.8197, -23.4179], [-46.8203, -23.42], [-46.8223, -23.4205], [-46.8233, -23.4224], [-46.8226, -23.4253], [-46.8215, -23.4271], [-46.8196, -23.4289], [-46.8169, -23.4297], [-46.8156, -23.4317], [-46.8152, -23.4336], [-46.8127, -23.435], [-46.8115, -23.4369], [-46.8116, -23.4407], [-46.8095, -23.4423], [-46.8095, -23.4451], [-46.8091, -23.4462], [-46.8093, -23.448], [-46.8086, -23.4518], [-46.8059, -23.4558], [-46.8056, -23.4576], [-46.8058, -23.4601], [-46.8054, -23.4625], [-46.8022, -23.4659], [-46.801, -23.467], [-46.8003, -23.4693], [-46.8007, -23.4704], [-46.7995, -23.4714], [-46.7988, -23.4705], [-46.7971, -23.4699], [-46.7965, -23.4673], [-46.7967, -23.465], [-46.796, -23.4629], [-46.7943, -23.4627], [-46.792, -23.4615], [-46.7895, -23.4631], [-46.787, -23.4657], [-46.7854, -23.4662], [-46.7833, -23.4658], [-46.7818, -23.4639], [-46.7806, -23.465], [-46.7788, -23.4652], [-46.7764, -23.4647], [-46.7737, -23.4615], [-46.7736, -23.4606], [-46.772, -23.4588], [-46.7704, -23.4584], [-46.7721, -23.4613], [-46.7728, -23.4631], [-46.7748, -23.4644], [-46.7758, -23.4686], [-46.775, -23.4706], [-46.7751, -23.4718], [-46.7717, -23.4736], [-46.7706, -23.4747], [-46.7698, -23.4768], [-46.7705, -23.4798], [-46.77, -23.4814], [-46.7699, -23.4839], [-46.7678, -23.4868], [-46.7663, -23.4913], [-46.7655, -23.4919], [-46.7616, -23.4934], [-46.7599, -23.4933], [-46.7584, -23.4944], [-46.756, -23.495], [-46.7555, -23.4962], [-46.7574, -23.498], [-46.7575, -23.4998], [-46.7598, -23.5], [-46.7615, -23.5017], [-46.7638, -23.5056], [-46.764, -23.5064], [-46.7618, -23.5091], [-46.7619, -23.5103], [-46.7603, -23.5109], [-46.7596, -23.5125], [-46.7579, -23.5132], [-46.7575, -23.514], [-46.7578, -23.5158], [-46.7547, -23.5166], [-46.753, -23.5174], [-46.7531, -23.5197], [-46.7508, -23.5208], [-46.747, -23.5204], [-46.7485, -23.5237], [-46.7501, -23.5251], [-46.7514, -23.5254], [-46.7546, -23.5252], [-46.7564, -23.5246], [-46.7571, -23.5265], [-46.76, -23.5292], [-46.7604, -23.53], [-46.7599, -23.5327], [-46.7606, -23.5358], [-46.7597, -23.5389], [-46.7605, -23.5428], [-46.7605, -23.5463], [-46.7588, -23.549], [-46.76, -23.55], [-46.7593, -23.5519], [-46.7602, -23.555], [-46.7623, -23.557], [-46.7624, -23.5582], [-46.7634, -23.5593], [-46.7638, -23.5611], [-46.7648, -23.5616], [-46.7652, -23.5634], [-46.7668, -23.5637], [-46.7673, -23.5627], [-46.7689, -23.5629], [-46.7705, -23.5648], [-46.7719, -23.5651], [-46.7725, -23.5687], [-46.7731, -23.5701], [-46.7786, -23.571], [-46.7812, -23.5732], [-46.7818, -23.5747], [-46.7847, -23.5742], [-46.786, -23.5745], [-46.7873, -23.5767], [-46.7883, -23.5775], [-46.7913, -23.5778], [-46.7926, -23.5802], [-46.7946, -23.5812], [-46.7952, -23.5825], [-46.7967, -23.5826], [-46.798, -23.5837], [-46.799, -23.583], [-46.8064, -23.584], [-46.8074, -23.5856], [-46.8057, -23.5872], [-46.8051, -23.5887], [-46.8068, -23.5924], [-46.8067, -23.5938], [-46.8089, -23.5984], [-46.8089, -23.5999], [-46.8081, -23.601], [-46.8092, -23.6028], [-46.8078, -23.6042], [-46.8081, -23.6062], [-46.8074, -23.6084], [-46.8078, -23.6091], [-46.8046, -23.6089], [-46.8019, -23.6078], [-46.7999, -23.6077], [-46.7984, -23.6048], [-46.7965, -23.605], [-46.7944, -23.6065], [-46.7925, -23.6055], [-46.7906, -23.6055], [-46.789, -23.6064], [-46.7875, -23.6049], [-46.7843, -23.6037], [-46.7813, -23.6041], [-46.78, -23.6035], [-46.779, -23.6022], [-46.7771, -23.6029], [-46.7752, -23.6029], [-46.774, -23.6006], [-46.7717, -23.5998], [-46.7686, -23.6002], [-46.7667, -23.599], [-46.7632, -23.598], [-46.7607, -23.5949], [-46.759, -23.5972], [-46.7592, -23.5983], [-46.7581, -23.5995], [-46.7566, -23.5997], [-46.755, -23.6007], [-46.7508, -23.6028], [-46.7498, -23.605], [-46.75, -23.6059], [-46.7515, -23.6064], [-46.7516, -23.6086], [-46.7525, -23.6105], [-46.7539, -23.6115], [-46.7554, -23.6113], [-46.7581, -23.6129], [-46.7603, -23.6149], [-46.761, -23.6174], [-46.763, -23.6188], [-46.7654, -23.622], [-46.7674, -23.6237], [-46.7691, -23.6271], [-46.7722, -23.6284], [-46.7729, -23.6292], [-46.7765, -23.631], [-46.7777, -23.6341], [-46.7776, -23.6352], [-46.7809, -23.6372], [-46.7849, -23.6384], [-46.7852, -23.6394], [-46.7878, -23.6408], [-46.7887, -23.6423], [-46.7896, -23.6449], [-46.7927, -23.6472], [-46.7925, -23.6496], [-46.7919, -23.6521], [-46.7934, -23.6568], [-46.7934, -23.6582], [-46.7942, -23.6592], [-46.7939, -23.6603], [-46.7945, -23.6618], [-46.7945, -23.6638], [-46.7955, -23.6653], [-46.795, -23.6668], [-46.7955, -23.6703], [-46.7973, -23.674], [-46.7985, -23.6751], [-46.7987, -23.6768], [-46.8, -23.6786], [-46.7996, -23.6812], [-46.8015, -23.6847], [-46.8015, -23.6854], [-46.8015, -23.6866], [-46.7989, -23.6903], [-46.798, -23.6938], [-46.797, -23.6954], [-46.7975, -23.6964], [-46.7997, -23.6969], [-46.8, -23.6985], [-46.7982, -23.6987], [-46.7946, -23.7001], [-46.7927, -23.7005], [-46.7915, -23.7018], [-46.7913, -23.705], [-46.7921, -23.7063], [-46.793, -23.7101], [-46.7926, -23.7109], [-46.7932, -23.7133], [-46.7925, -23.7143], [-46.7925, -23.7183], [-46.7919, -23.7191], [-46.7927, -23.7204], [-46.7924, -23.7213], [-46.7943, -23.7247], [-46.7948, -23.7261], [-46.7977, -23.728], [-46.7985, -23.7291], [-46.7985, -23.7311], [-46.7956, -23.7359], [-46.796, -23.7391], [-46.793, -23.7399], [-46.7901, -23.7412], [-46.7903, -23.744], [-46.787, -23.7467], [-46.7857, -23.7471], [-46.7832, -23.7488], [-46.7815, -23.7507], [-46.78, -23.7494], [-46.7781, -23.7506], [-46.777, -23.7506], [-46.7766, -23.7524], [-46.7757, -23.753], [-46.7727, -23.7519], [-46.7699, -23.7529], [-46.7692, -23.7547], [-46.7692, -23.7578], [-46.7701, -23.7613], [-46.7712, -23.7636], [-46.7732, -23.7655], [-46.7753, -23.7659], [-46.7774, -23.7672], [-46.7797, -23.7703], [-46.7815, -23.7721], [-46.7862, -23.7731], [-46.7881, -23.7738], [-46.7901, -23.7761], [-46.7908, -23.7777], [-46.791, -23.78], [-46.7894, -23.7847], [-46.7896, -23.7862], [-46.7882, -23.7863], [-46.7887, -23.7876], [-46.7901, -23.7883], [-46.7891, -23.7899], [-46.7937, -23.7938], [-46.7965, -23.7975], [-46.7959, -23.7985], [-46.7966, -23.7997], [-46.7984, -23.8003], [-46.7993, -23.8014], [-46.8004, -23.8015], [-46.8007, -23.8047], [-46.8017, -23.8061], [-46.8019, -23.8079], [-46.8011, -23.8098], [-46.7962, -23.8111], [-46.7951, -23.8105], [-46.7918, -23.8113], [-46.7888, -23.8116], [-46.7863, -23.8127], [-46.7824, -23.8132], [-46.7805, -23.8142], [-46.775, -23.8177], [-46.7734, -23.8181], [-46.7716, -23.82], [-46.7689, -23.8214], [-46.7671, -23.8239], [-46.7632, -23.8266], [-46.7626, -23.8279], [-46.763, -23.8306], [-46.7636, -23.832], [-46.7656, -23.8334], [-46.7655, -23.8348], [-46.7632, -23.8346], [-46.7626, -23.8359], [-46.7634, -23.8386], [-46.763, -23.8397], [-46.7643, -23.8426], [-46.7674, -23.8436], [-46.7693, -23.8434], [-46.7735, -23.8438], [-46.7765, -23.8422], [-46.7784, -23.8416], [-46.7799, -23.8422], [-46.7789, -23.8464], [-46.7796, -23.8486], [-46.7791, -23.8491], [-46.7795, -23.8514], [-46.776, -23.8554], [-46.7766, -23.8926], [-46.7768, -23.8932], [-46.786, -23.8943], [-46.7877, -23.8948], [-46.7951, -23.8938], [-46.7964, -23.8931], [-46.799, -23.8937], [-46.8009, -23.8928], [-46.8009, -23.8904], [-46.8014, -23.889], [-46.803, -23.8877], [-46.8054, -23.8875], [-46.8074, -23.8865], [-46.8072, -23.8881], [-46.8062, -23.8918], [-46.8053, -23.8914], [-46.8046, -23.8952], [-46.8049, -23.8972], [-46.8069, -23.8998], [-46.8071, -23.9013], [-46.8096, -23.905], [-46.8109, -23.9061], [-46.8116, -23.9078], [-46.8111, -23.9115], [-46.8118, -23.9133], [-46.8111, -23.9152], [-46.8118, -23.9171], [-46.8107, -23.9186], [-46.8107, -23.9205], [-46.8101, -23.923], [-46.808, -23.9293], [-46.8083, -23.9308], [-46.808, -23.9326], [-46.807, -23.9346], [-46.8074, -23.9365], [-46.8069, -23.9382], [-46.8046, -23.9386], [-46.8013, -23.9378], [-46.8001, -23.938], [-46.796, -23.9402], [-46.7945, -23.9426], [-46.7928, -23.9431], [-46.7912, -23.9426], [-46.7898, -23.9409], [-46.7876, -23.9412], [-46.7856, -23.9423], [-46.7834, -23.9453], [-46.7835, -23.9469], [-46.7809, -23.9488], [-46.7777, -23.95], [-46.7757, -23.9499], [-46.7742, -23.9503], [-46.7749, -23.9529], [-46.7742, -23.9538], [-46.7751, -23.9564], [-46.772, -23.9599], [-46.7716, -23.961], [-46.7698, -23.9609], [-46.7683, -23.962], [-46.7663, -23.9612], [-46.7649, -23.9617], [-46.7633, -23.9632], [-46.7625, -23.9647], [-46.7637, -23.9662], [-46.7626, -23.9683], [-46.7611, -23.9691], [-46.7593, -23.9708], [-46.7583, -23.9725], [-46.7554, -23.9725], [-46.7548, -23.9732], [-46.7549, -23.9754], [-46.7559, -23.9759], [-46.7573, -23.9783], [-46.7591, -23.9787], [-46.7591, -23.9799], [-46.7582, -23.9806], [-46.7603, -23.9834], [-46.7604, -23.9848], [-46.7622, -23.9865], [-46.7623, -23.988], [-46.7644, -23.9885], [-46.7648, -23.9901], [-46.7664, -23.9917], [-46.767, -23.995], [-46.7682, -23.9961], [-46.7682, -23.9988], [-46.7709, -24.0008], [-46.7739, -24.0021], [-46.7747, -24.003], [-46.7742, -24.005], [-46.7723, -24.0064], [-46.772, -24.0077], [-46.7694, -24.0084], [-46.768, -24.0063], [-46.7664, -24.0054], [-46.7649, -24.0062], [-46.7627, -24.006], [-46.7612, -24.0032], [-46.7597, -24.0029], [-46.758, -24.0013], [-46.755, -23.9968], [-46.7522, -23.9958], [-46.751, -23.9965], [-46.7494, -23.9954], [-46.7492, -23.9943], [-46.7451, -23.9939], [-46.7427, -23.9919], [-46.7404, -23.9924], [-46.7376, -23.9919], [-46.736, -23.9935], [-46.7322, -23.9952], [-46.7303, -23.9955], [-46.7262, -23.9943], [-46.7244, -23.9943], [-46.721, -23.993], [-46.72, -23.9946], [-46.7175, -23.9958], [-46.7148, -23.9962], [-46.7136, -23.9954], [-46.7128, -23.9939], [-46.7103, -23.9934], [-46.7081, -23.991], [-46.7063, -23.9907], [-46.7034, -23.9916], [-46.6993, -23.9903], [-46.6967, -23.9883], [-46.6941, -23.9867], [-46.6921, -23.9844], [-46.6875, -23.9847], [-46.6855, -23.9824], [-46.6833, -23.9824], [-46.6824, -23.9832], [-46.6816, -23.9854], [-46.68, -23.9872], [-46.6754, -23.9894], [-46.6735, -23.9885], [-46.6717, -23.9891], [-46.6678, -23.9882], [-46.6653, -23.9881], [-46.6618, -23.9882], [-46.6591, -23.992], [-46.6566, -23.9932], [-46.6546, -23.9955], [-46.653, -23.9967], [-46.6509, -24.001], [-46.6499, -24.0016], [-46.6476, -23.9999], [-46.6437, -23.9987], [-46.6426, -23.9979], [-46.6404, -23.9978], [-46.6395, -23.9972], [-46.6389, -23.9954], [-46.6371, -23.9942], [-46.6351, -23.9948], [-46.6337, -23.9927], [-46.6314, -23.9923], [-46.6295, -23.9912], [-46.6304, -23.9899], [-46.6331, -23.988], [-46.6333, -23.9838], [-46.6348, -23.9811], [-46.6357, -23.9773], [-46.6312, -23.975], [-46.6305, -23.9742], [-46.6278, -23.9733], [-46.6277, -23.9725], [-46.625, -23.9723], [-46.6242, -23.9712], [-46.6229, -23.9713], [-46.6205, -23.9707], [-46.62, -23.9696], [-46.618, -23.9678], [-46.6167, -23.9681], [-46.6158, -23.9673], [-46.6133, -23.9685], [-46.6119, -23.9678]]]}}, {"type": "Feature", "properties": {"codigo_ibge": "3518800", "nome": "Guarulhos"}, "geometry": {"type": "Polygon", "coordinates": [[[-46.3867, -23.4747], [-46.3864, -23.473], [-46.3889, -23.4712], [-46.3885, -23.4697], [-46.3895, -23.4656], [-46.3912, -23.4634], [-46.3923, -23.461], [-46.392, -23.4589], [-46.3933, -23.4572], [-46.3925, -23.4545], [-46.393, -23.4536], [-46.395, -23.4521], [-46.3965, -23.4488], [-46.3973, -23.4478], [-46.3967, -23.4461], [-46.3942, -23.4472], [-46.3938, -23.4486], [-46.3909, -23.4489], [-46.3895, -23.4484], [-46.3887, -23.4451], [-46.3849, -23.4455], [-46.3835, -23.4439], [-46.3847, -23.4396], [-46.3865, -23.4394], [-46.3881, -23.4378], [-46.387, -23.436], [-46.3846, -23.4352], [-46.3827, -23.4331], [-46.3797, -23.4341], [-46.378, -23.433], [-46.3762, -23.4329], [-46.3758, -23.4322], [-46.3715, -23.4338], [-46.3701, -23.434], [-46.3695, -23.4358], [-46.3676, -23.4374], [-46.3663, -23.4375], [-46.3649, -23.4356], [-46.363, -23.4352], [-46.3616, -23.4362], [-46.3596, -23.4385], [-46.3584, -23.4373], [-46.3602, -23.4363], [-46.3633, -23.4329], [-46.3668, -23.4301], [-46.3676, -23.428], [-46.3672, -23.4261], [-46.3677, -23.4234], [-46.3672, -23.4229], [-46.369, -23.4205], [-46.3702, -23.4181], [-46.371, -23.4178], [-46.372, -23.4122], [-46.3751, -23.4082], [-46.3757, -23.407], [-46.3752, -23.405], [-46.3771, -23.4032], [-46.3776, -23.4015], [-46.3768, -23.3971], [-46.3718, -23.395], [-46.3686, -23.3942], [-46.3694, -23.3906], [-46.3705, -23.3895], [-46.3705, -23.3876], [-46.3728, -23.386], [-46.3709, -23.3842], [-46.3704, -23.3821], [-46.3711, -23.3808], [-46.37, -23.3787], [-46.3703, -23.377], [-46.3699, -23.3748], [-46.3723, -23.3701], [-46.372, -23.3674], [-46.3706, -23.3666], [-46.37, -23.3651], [-46.3674, -23.3639], [-46.3662, -23.3637], [-46.3632, -23.3613], [-46.3629, -23.3595], [-46.3614, -23.3599], [-46.3597, -23.3593], [-46.3574, -23.3571], [-46.3578, -23.3553], [-46.355, -23.3524], [-46.3515, -23.3517], [-46.3516, -23.3501], [-46.3496, -23.3496], [-46.3485, -23.3484], [-46.3472, -23.348], [-46.3458, -23.3459], [-46.3444, -23.3451], [-46.3447, -23.3438], [-46.3434, -23.3433], [-46.3442, -23.3418], [-46.3418, -23.3413], [-46.3421, -23.3401], [-46.3412, -23.3377], [-46.3399, -23.3364], [-46.3399, -23.3351], [-46.3365, -23.3348], [-46.336, -23.333], [-46.336, -23.3298], [-46.3368, -23.3291], [-46.3413, -23.3287], [-46.3454, -23.3294], [-46.3504, -23.329], [-46.354, -23.3263], [-46.3544, -23.3243], [-46.3569, -23.3215], [-46.3581, -23.3181], [-46.3581, -23.3171], [-46.3559, -23.3144], [-46.3553, -23.3101], [-46.3564, -23.3088], [-46.3581, -23.3078], [-46.3587, -23.3051], [-46.3563, -23.3026], [-46.3561, -23.2997], [-46.3554, -23.2978], [-46.357, -23.2959], [-46.358, -23.2936], [-46.3578, -23.2909], [-46.3562, -23.2895], [-46.3566, -23.288], [-46.3592, -23.2851], [-46.3609, -23.284], [-46.3618, -23.2828], [-46.3627, -23.2784], [-46.362, -23.2771], [-46.3624, -23.276], [-46.3642, -23.2741], [-46.3657, -23.2739], [-46.3672, -23.2752], [-46.3693, -23.275], [-46.3717, -23.2757], [-46.3758, -23.2782], [-46.3787, -23.2787], [-46.3814, -23.2781], [-46.3843, -23.2814], [-46.3846, -23.2835], [-46.3863, -23.2848], [-46.3871, -23.2867], [-46.3903, -23.2875], [-46.3928, -23.2869], [-46.395, -23.2859], [-46.3964, -23.2859], [-46.3982, -23.2877], [-46.4003, -23.2892], [-46.4008, -23.2916], [-46.4005, -23.2946], [-46.4018, -23.296], [-46.4033, -23.296], [-46.4027, -23.2991], [-46.4042, -23.3006], [-46.4058, -23.301], [-46.4079, -23.3003], [-46.4116, -23.3014], [-46.4121, -23.3027], [-46.4103, -23.3043], [-46.4109, -23.3065], [-46.4135, -23.3083], [-46.4139, -23.3101], [-46.4163, -23.3133], [-46.4171, -23.3151], [-46.4185, -23.3163], [-46.4215, -23.3155], [-46.4233, -23.3164], [-46.4237, -23.3174], [-46.4231, -23.3195], [-46.4243, -23.3203], [-46.4255, -23.3234], [-46.4276, -23.3235], [-46.4288, -23.325], [-46.43, -23.328], [-46.4309, -23.3293], [-46.4333, -23.3303], [-46.4338, -23.3316], [-46.4327, -23.3341], [-46.4317, -23.3354], [-46.434, -23.337], [-46.4353, -23.3374], [-46.4388, -23.3396], [-46.4394, -23.3407], [-46.4391, -23.342], [-46.4415, -23.3418], [-46.4427, -23.3407], [-46.4444, -23.3413], [-46.4438, -23.3426], [-46.445, -23.3455], [-46.4466, -23.347], [-46.4485, -23.3497], [-46.4483, -23.3506], [-46.4464, -23.3525], [-46.4449, -23.3544], [-46.4443, -23.3571], [-46.4451, -23.3587], [-46.448, -23.3576], [-46.4523, -23.3583], [-46.4544, -23.357], [-46.458, -23.3566], [-46.4622, -23.3576], [-46.4651, -23.3571], [-46.4674, -23.3572], [-46.4683, -23.3566], [-46.47, -23.3582], [-46.4717, -23.3586], [-46.4739, -23.3615], [-46.4757, -23.3621], [-46.4782, -23.3612], [-46.4799, -23.3622], [-46.4808, -23.3621], [-46.4826, -23.36], [-46.4867, -23.3581], [-46.4871, -23.3564], [-46.4868, -23.3541], [-46.4874, -23.3508], [-46.4885, -23.3498], [-46.4899, -23.3498], [-46.4927, -23.3487], [-46.4959, -23.3482], [-46.4977, -23.3502], [-46.4999, -23.3515], [-46.5028, -23.3521], [-46.5046, -23.352], [-46.5073, -23.353], [-46.5088, -23.355], [-46.511, -23.3555], [-46.5158, -23.3542], [-46.5182, -23.3546], [-46.5205, -23.3545], [-46.5219, -23.3559], [-46.5251, -23.3583], [-46.5287, -23.3598], [-46.5307, -23.3612], [-46.5337, -23.3619], [-46.5354, -23.3633], [-46.5364, -23.3639], [-46.5377, -23.3668], [-46.5371, -23.3691], [-46.5389, -23.3706], [-46.542, -23.3739], [-46.5443, -23.3753], [-46.5452, -23.3768], [-46.5451, -23.3795], [-46.5447, -23.3808], [-46.5445, -23.3841], [-46.5457, -23.3856], [-46.5456, -23.387], [-46.5473, -23.3879], [-46.5501, -23.3911], [-46.5518, -23.3921], [-46.5538, -23.3949], [-46.5561, -23.3974], [-46.5563, -23.3986], [-46.555, -23.4016], [-46.5565, -23.4051], [-46.5561, -23.408], [-46.5564, -23.4096], [-46.5581, -23.4111], [-46.5598, -23.4108], [-46.5616, -23.4131], [-46.5631, -23.4131], [-46.5666, -23.4154], [-46.5669, -23.4164], [-46.5654, -23.4181], [-46.5661, -23.4188], [-46.5667, -23.4219], [-46.5657, -23.4274], [-46.567, -23.4295], [-46.5676, -23.4313], [-46.5685, -23.4324], [-46.5674, -23.4332], [-46.5666, -23.435], [-46.5649, -23.4357], [-46.5653, -23.4388], [-46.5653, -23.4415], [-46.5668, -23.4424], [-46.567, -23.4467], [-46.5686, -23.4494], [-46.5685, -23.4516], [-46.5704, -23.4542], [-46.5707, -23.4569], [-46.5705, -23.4588], [-46.5693, -23.4608], [-46.5678, -23.4647], [-46.5666, -23.4656], [-46.5653, -23.4687], [-46.5634, -23.4705], [-46.5617, -23.4728], [-46.5617, -23.4743], [-46.561, -23.4756], [-46.5608, -23.4777], [-46.5613, -23.4793], [-46.561, -23.4816], [-46.5614, -23.4841], [-46.5609, -23.4881], [-46.5599, -23.4897], [-46.56, -23.494], [-46.5605, -23.4964], [-46.562, -23.4992], [-46.5621, -23.5], [-46.5594, -23.5044], [-46.5591, -23.5071], [-46.5555, -23.5101], [-46.5533, -23.5078], [-46.5509, -23.507], [-46.547, -23.5064], [-46.5459, -23.5059], [-46.5436, -23.5037], [-46.5417, -23.5015], [-46.5414, -23.5004], [-46.5396, -23.4987], [-46.5363, -23.4964], [-46.5339, -23.4934], [-46.5285, -23.4912], [-46.5261, -23.4891], [-46.5233, -23.4855], [-46.5218, -23.4843], [-46.5203, -23.4842], [-46.5187, -23.4825], [-46.5164, -23.4813], [-46.5127, -23.4797], [-46.5111, -23.4788], [-46.5078, -23.4784], [-46.503, -23.4773], [-46.4989, -23.4769], [-46.4938, -23.476], [-46.4886, -23.4776], [-46.4855, -23.4771], [-46.48, -23.4769], [-46.4784, -23.4776], [-46.4749, -23.4784], [-46.4713, -23.4802], [-46.4659, -23.4823], [-46.4633, -23.4828], [-46.4605, -23.483], [-46.4585, -23.4825], [-46.4572, -23.4828], [-46.4513, -23.4818], [-46.4467, -23.4808], [-46.442, -23.4794], [-46.4396, -23.4801], [-46.4376, -23.4798], [-46.4352, -23.4786], [-46.4363, -23.4769], [-46.436, -23.4757], [-46.4335, -23.4764], [-46.4333, -23.4772], [-46.4298, -23.4758], [-46.4299, -23.4734], [-46.4265, -23.472], [-46.4248, -23.4727], [-46.4217, -23.4731], [-46.419, -23.4744], [-46.4184, -23.473], [-46.4152, -23.4726], [-46.4121, -23.4705], [-46.4106, -23.4704], [-46.4101, -23.4716], [-46.4078, -23.4722], [-46.4077, -23.4729], [-46.4097, -23.4741], [-46.4085, -23.4755], [-46.4081, -23.4769], [-46.4064, -23.4775], [-46.4059, -23.4763], [-46.4044, -23.4781], [-46.4056, -23.4794], [-46.404, -23.4808], [-46.4062, -23.4816], [-46.4066, -23.4851], [-46.4057, -23.4861], [-46.4034, -23.485], [-46.4011, -23.4868], [-46.4009, -23.4856], [-46.3997, -23.4832], [-46.3966, -23.4842], [-46.3952, -23.4827], [-46.3919, -23.4806], [-46.3887, -23.4823], [-46.3878, -23.482], [-46.3863, -23.4797], [-46.387, -23.4768], [-46.3863, -23.4758], [-46.3867, -23.4747]]]}}, {"type": "Feature", "properties": {"codigo_ibge": "3534401", "nome": "Osasco"}, "geometry": {"type": "Polygon", "coordinates": [[[-46.8078, -23.6091], [-46.8074, -23.6084], [-46.8081, -23.6062], [-46.8078, -23.6042], [-46.8092, -23.6028], [-46.8081, -23.601], [-46.8089, -23.5999], [-46.8089, -23.5984], [-46.8067, -23.5938], [-46.8068, -23.5924], [-46.8051, -23.5887], [-46.8057, -23.5872], [-46.8074, -23.5856], [-46.8064, -23.584], [-46.799, -23.583], [-46.798, -23.5837], [-46.7967, -23.5826], [-46.7952, -23.5825], [-46.7946, -23.5812], [-46.7926, -23.5802], [-46.7913, -23.5778], [-46.7883, -23.5775], [-46.7873, -23.5767], [-46.786, -23.5745], [-46.7847, -23.5742], [-46.7818, -23.5747], [-46.7812, -23.5732], [-46.7786, -23.571], [-46.7731, -23.5701], [-46.7725, -23.5687], [-46.7719, -23.5651], [-46.7705, -23.5648], [-46.7689, -23.5629], [-46.7673, -23.5627], [-46.7668, -23.5637], [-46.7652, -23.5634], [-46.7648, -23.5616], [-46.7638, -23.5611], [-46.7634, -23.5593], [-46.7624, -23.5582], [-46.7623, -23.557], [-46.7602, -23.555], [-46.7593, -23.5519], [-46.76, -23.55], [-46.7588, -23.549], [-46.7605, -23.5463], [-46.7605, -23.5428], [-46.7597, -23.5389], [-46.7606, -23.5358], [-46.7599, -23.5327], [-46.7604, -23.53], [-46.76, -23.5292], [-46.7571, -23.5265], [-46.7564, -23.5246], [-46.7546, -23.5252], [-46.7514, -23.5254], [-46.7501, -23.5251], [-46.7485, -23.5237], [-46.747, -23.5204], [-46.7508, -23.5208], [-46.7531, -23.5197], [-46.753, -23.5174], [-46.7547, -23.5166], [-46.7578, -23.5158], [-46.7575, -23.514], [-46.7579, -23.5132], [-46.7596, -23.5125], [-46.7603, -23.5109], [-46.7619, -23.5103], [-46.7618, -23.5091], [-46.764, -23.5064], [-46.7638, -23.5056], [-46.7615, -23.5017], [-46.7598, -23.5], [-46.7575, -23.4998], [-46.7574, -23.498], [-46.7555, -23.4962], [-46.756, -23.495], [-46.7584, -23.4944], [-46.7599, -23.4933], [-46.7616, -23.4934], [-46.7655, -23.4919], [-46.7663, -23.4913], [-46.7678, -23.4868], [-46.7699, -23.4839], [-46.77, -23.4814], [-46.7705, -23.4798], [-46.7698, -23.4768], [-46.7706, -23.4747], [-46.7717, -23.4736], [-46.7751, -23.4718], [-46.775, -23.4706], [-46.7758, -23.4686], [-46.7748, -23.4644], [-46.7728, -23.4631], [-46.7721, -23.4613], [-46.7704, -23.4584], [-46.772, -23.4588], [-46.7736, -23.4606], [-46.7737, -23.4615], [-46.7764, -23.4647], [-46.7788, -23.4652], [-46.7806, -23.465], [-46.7818, -23.4639], [-46.7833, -23.4658], [-46.7854, -23.4662], [-46.787, -23.4657], [-46.7895, -23.4631], [-46.792, -23.4615], [-46.7943, -23.4627], [-46.796, -23.4629], [-46.7967, -23.465], [-46.7965, -23.4673], [-46.7971, -23.4699], [-46.7988, -23.4705], [-46.7995, -23.4714], [-46.7998, -23.4736], [-46.7987, -23.4765], [-46.7992, -23.4773], [-46.8013, -23.4786], [-46.8018, -23.4807], [-46.8014, -23.482], [-46.7998, -23.4837], [-46.8004, -23.4848], [-46.8016, -23.4847], [-46.8043, -23.4859], [-46.8056, -23.4887], [-46.806, -23.4907], [-46.8069, -23.4931], [-46.8088, -23.4944], [-46.8118, -23.498], [-46.8124, -23.4997], [-46.812, -23.5018], [-46.8111, -23.5023], [-46.8102, -23.5043], [-46.8083, -23.5065], [-46.8085, -23.51], [-46.8101, -23.5123], [-46.8132, -23.5138], [-46.8163, -23.5168], [-46.8172, -23.5185], [-46.8174, -23.5207], [-46.8175, -23.5234], [-46.8165, -23.525], [-46.8165, -23.5284], [-46.8173, -23.5304], [-46.8174, -23.5338], [-46.8173, -23.5393], [-46.8178, -23.5418], [-46.8205, -23.5435], [-46.8213, -23.5452], [-46.8206, -23.5466], [-46.8218, -23.5489], [-46.821, -23.5507], [-46.8208, -23.5528], [-46.82, -23.554], [-46.82, -23.5571], [-46.8206, -23.5588], [-46.8178, -23.5623], [-46.8181, -23.5657], [-46.8165, -23.5681], [-46.8144, -23.5694], [-46.8146, -23.5717], [-46.8154, -23.5732], [-46.8151, -23.5745], [-46.8156, -23.5765], [-46.8173, -23.5787], [-46.818, -23.5808], [-46.8173, -23.5819], [-46.8166, -23.5831], [-46.8163, -23.5852], [-46.8167, -23.5878], [-46.8132, -23.5893], [-46.8135, -23.591], [-46.8133, -23.5935], [-46.8146, -23.5955], [-46.8176, -23.5989], [-46.818, -23.6002], [-46.8164, -23.6028], [-46.8128, -23.6047], [-46.8107, -23.6048], [-46.8078, -23.6091]]]}}, {"type": "Feature", "properties": {"codigo_ibge": "3547809", "nome": "Santo Andre"}, "geometry": {"type": "Polygon", "coordinates": [[[-46.5672, -23.6502], [-46.5656, -23.6506], [-46.5637, -23.6522], [-46.5629, -23.6538], [-46.5613, -23.6552], [-46.5598, -23.6577], [-46.5536, -23.6664], [-46.5531, -23.6676], [-46.5531, -23.6694], [-46.554, -23.6721], [-46.5532, -23.6745], [-46.5532, -23.6762], [-46.5536, -23.6784], [-46.5546, -23.6794], [-46.5546, -23.6809], [-46.5532, -23.6837], [-46.5498, -23.6847], [-46.5451, -23.6838], [-46.5426, -23.6849], [-46.5395, -23.6875], [-46.5392, -23.6889], [-46.5377, -23.6905], [-46.5369, -23.6941], [-46.5369, -23.6963], [-46.5342, -23.6978], [-46.5341, -23.6992], [-46.5322, -23.701], [-46.5301, -23.7016], [-46.5291, -23.7034], [-46.5263, -23.7021], [-46.5237, -23.7014], [-46.522, -23.7025], [-46.5201, -23.7006], [-46.5193, -23.7037], [-46.5178, -23.7041], [-46.5168, -23.7054], [-46.5177, -23.7071], [-46.5173, -23.7097], [-46.5204, -23.7115], [-46.5219, -23.7147], [-46.5203, -23.7165], [-46.5184, -23.718], [-46.5174, -23.7203], [-46.5177, -23.7244], [-46.5169, -23.7278], [-46.5178, -23.7312], [-46.52, -23.7339], [-46.5203, -23.7353], [-46.5194, -23.7358], [-46.5177, -23.7379], [-46.5185, -23.74], [-46.5175, -23.7422], [-46.5192, -23.7444], [-46.5211, -23.7458], [-46.523, -23.7461], [-46.5256, -23.7456], [-46.5276, -23.7471], [-46.5279, -23.7484], [-46.5252, -23.7497], [-46.5231, -23.7501], [-46.5212, -23.7491], [-46.5195, -23.7494], [-46.5184, -23.7481], [-46.5145, -23.7476], [-46.5133, -23.7468], [-46.5117, -23.7477], [-46.5093, -23.7466], [-46.5074, -23.745], [-46.5065, -23.7433], [-46.504, -23.7448], [-46.5025, -23.7449], [-46.501, -23.7463], [-46.4994, -23.746], [-46.4965, -23.7478], [-46.4953, -23.7503], [-46.4891, -23.7568], [-46.4844, -23.7622], [-46.4818, -23.7639], [-46.4786, -23.7654], [-46.4768, -23.7669], [-46.4756, -23.7689], [-46.475, -23.7715], [-46.4736, -23.7731], [-46.4711, -23.774], [-46.4683, -23.7771], [-46.4656, -23.7782], [-46.4644, -23.7792], [-46.464, -23.7813], [-46.4618, -23.7828], [-46.4601, -23.7848], [-46.4589, -23.7842], [-46.457, -23.785], [-46.4573, -23.7866], [-46.4569, -23.7881], [-46.4554, -23.7905], [-46.4528, -23.7931], [-46.4495, -23.7958], [-46.4418, -23.8], [-46.4389, -23.8004], [-46.4373, -23.8001], [-46.434, -23.8012], [-46.4306, -23.8013], [-46.4302, -23.8024], [-46.4306, -23.8041], [-46.4317, -23.8052], [-46.4327, -23.8081], [-46.4317, -23.8101], [-46.4292, -23.8117], [-46.4281, -23.8118], [-46.4263, -23.8129], [-46.4242, -23.8125], [-46.4229, -23.8131], [-46.421, -23.8125], [-46.4202, -23.8136], [-46.4175, -23.8133], [-46.417, -23.8147], [-46.4149, -23.8157], [-46.4125, -23.8157], [-46.4113, -23.8148], [-46.4103, -23.8154], [-46.4085, -23.8148], [-46.408, -23.8132], [-46.4059, -23.8124], [-46.4024, -23.8118], [-46.3962, -23.8118], [-46.3942, -23.8143], [-46.3927, -23.8121], [-46.3896, -23.81], [-46.3863, -23.8093], [-46.3836, -23.8097], [-46.3827, -23.8091], [-46.3807, -23.8061], [-46.3776, -23.8041], [-46.3768, -23.8019], [-46.3755, -23.8001], [-46.3747, -23.7977], [-46.3733, -23.7955], [-46.3745, -23.7946], [-46.3772, -23.7948], [-46.3764, -23.7935], [-46.372, -23.7898], [-46.3704, -23.7911], [-46.3688, -23.7915], [-46.3677, -23.7925], [-46.3621, -23.7913], [-46.3612, -23.7924], [-46.3587, -23.7922], [-46.357, -23.7913], [-46.3544, -23.7915], [-46.3536, -23.7905], [-46.3538, -23.7887], [-46.352, -23.7879], [-46.3491, -23.7872], [-46.3484, -23.7878], [-46.3452, -23.7875], [-46.3435, -23.7847], [-46.3423, -23.7838], [-46.3386, -23.7817], [-46.3356, -23.7812], [-46.3318, -23.7813], [-46.3315, -23.782], [-46.3295, -23.7823], [-46.3289, -23.7832], [-46.3253, -23.7842], [-46.3235, -23.7853], [-46.3208, -23.7851], [-46.3202, -23.7855], [-46.3203, -23.8031], [-46.3193, -23.8024], [-46.3165, -23.802], [-46.3159, -23.8009], [-46.3118, -23.7971], [-46.3109, -23.7968], [-46.3086, -23.7944], [-46.3089, -23.7936], [-46.3026, -23.7879], [-46.2997, -23.7869], [-46.2981, -23.7881], [-46.296, -23.7872], [-46.2956, -23.786], [-46.2938, -23.7837], [-46.2913, -23.7812], [-46.2889, -23.7797], [-46.2872, -23.778], [-46.2852, -23.7772], [-46.2831, -23.775], [-46.2811, -23.7734], [-46.2784, -23.7703], [-46.2831, -23.7673], [-46.2838, -23.766], [-46.2834, -23.7647], [-46.2851, -23.7635], [-46.2855, -23.7626], [-46.2853, -23.7606], [-46.2856, -23.7584], [-46.2883, -23.7546], [-46.2902, -23.7535], [-46.2912, -23.7521], [-46.2934, -23.7505], [-46.2939, -23.7492], [-46.2954, -23.7485], [-46.2967, -23.7487], [-46.2984, -23.7509], [-46.3027, -23.751], [-46.3041, -23.7492], [-46.3066, -23.7478], [-46.3083, -23.7484], [-46.3105, -23.7474], [-46.3122, -23.7473], [-46.3134, -23.7455], [-46.3156, -23.7445], [-46.32, -23.7454], [-46.3219, -23.7444], [-46.3184, -23.7415], [-46.3168, -23.7392], [-46.3173, -23.737], [-46.3187, -23.736], [-46.3203, -23.7362], [-46.3223, -23.7354], [-46.3244, -23.7332], [-46.3249, -23.731], [-46.3281, -23.7284], [-46.3291, -23.7281], [-46.3305, -23.7267], [-46.3334, -23.7272], [-46.3355, -23.7256], [-46.3368, -23.726], [-46.3379, -23.7278], [-46.3379, -23.7297], [-46.3387, -23.7318], [-46.3404, -23.7321], [-46.3414, -23.733], [-46.3415, -23.7344], [-46.3435, -23.7353], [-46.3434, -23.7379], [-46.3466, -23.7365], [-46.3491, -23.7363], [-46.3502, -23.7356], [-46.3531, -23.7364], [-46.3545, -23.7372], [-46.3553, -23.7388], [-46.3576, -23.7399], [-46.3602, -23.7397], [-46.3613, -23.7412], [-46.3617, -23.7429], [-46.3596, -23.7433], [-46.3588, -23.7441], [-46.3587, -23.7468], [-46.3592, -23.748], [-46.3613, -23.7506], [-46.3632, -23.7513], [-46.3649, -23.753], [-46.3671, -23.7532], [-46.3684, -23.7526], [-46.3699, -23.7542], [-46.3713, -23.7527], [-46.3732, -23.7529], [-46.3738, -23.7559], [-46.3763, -23.7588], [-46.3782, -23.7584], [-46.381, -23.7585], [-46.3835, -23.7602], [-46.3847, -23.762], [-46.3868, -23.7623], [-46.3874, -23.764], [-46.3909, -23.764], [-46.3961, -23.7674], [-46.3978, -23.7675], [-46.3993, -23.7664], [-46.4009, -23.7678], [-46.4041, -23.7681], [-46.4073, -23.7698], [-46.4125, -23.77], [-46.4147, -23.7692], [-46.4156, -23.7699], [-46.4156, -23.773], [-46.4173, -23.772], [-46.4194, -23.773], [-46.4206, -23.7715], [-46.4215, -23.7715], [-46.4231, -23.773], [-46.4243, -23.7722], [-46.4261, -23.774], [-46.4269, -23.7714], [-46.4253, -23.7696], [-46.4264, -23.7683], [-46.4279, -23.7677], [-46.4289, -23.7657], [-46.4307, -23.7655], [-46.4332, -23.7673], [-46.4372, -23.7678], [-46.4387, -23.7672], [-46.4397, -23.7661], [-46.4416, -23.7674], [-46.4421, -23.7692], [-46.4442, -23.7687], [-46.4451, -23.7703], [-46.4477, -23.7695], [-46.4501, -23.7707], [-46.451, -23.7706], [-46.4523, -23.7692], [-46.4553, -23.7675], [-46.4568, -23.7677], [-46.4572, -23.7648], [-46.458, -23.7638], [-46.4561, -23.7623], [-46.4529, -23.759], [-46.4544, -23.7568], [-46.4573, -23.7562], [-46.458, -23.7548], [-46.4569, -23.7529], [-46.4578, -23.7507], [-46.4616, -23.7481], [-46.4635, -23.7465], [-46.4678, -23.7408], [-46.4711, -23.7393], [-46.4714, -23.738], [-46.4699, -23.7366], [-46.4702, -23.7355], [-46.4693, -23.7344], [-46.4687, -23.7322], [-46.4697, -23.7297], [-46.4696, -23.7267], [-46.4689, -23.7261], [-46.4703, -23.7234], [-46.4739, -23.7207], [-46.475, -23.7183], [-46.4765, -23.7195], [-46.479, -23.7194], [-46.4814, -23.7182], [-46.4835, -23.7155], [-46.4831, -23.7124], [-46.4838, -23.7112], [-46.4899, -23.7113], [-46.4917, -23.709], [-46.4912, -23.7078], [-46.4891, -23.7068], [-46.4907, -23.7056], [-46.4911, -23.704], [-46.4903, -23.6998], [-46.4911, -23.6985], [-46.4895, -23.6952], [-46.4884, -23.6945], [-46.4865, -23.6942], [-46.4858, -23.6932], [-46.4857, -23.6901], [-46.4853, -23.689], [-46.483, -23.6874], [-46.4836, -23.6861], [-46.4833, -23.6849], [-46.4812, -23.6826], [-46.4803, -23.6805], [-46.481, -23.6737], [-46.4816, -23.6718], [-46.4826, -23.6707], [-46.4852, -23.6694], [-46.4854, -23.6677], [-46.4869, -23.6652], [-46.4893, -23.664], [-46.4897, -23.662], [-46.4926, -23.661], [-46.4934, -23.66], [-46.4972, -23.6611], [-46.4974, -23.66], [-46.499, -23.6576], [-46.4958, -23.6561], [-46.4938, -23.653], [-46.4922, -23.6511], [-46.4887, -23.6499], [-46.4867, -23.6488], [-46.4848, -23.6495], [-46.4824, -23.6495], [-46.4815, -23.6483], [-46.483, -23.6466], [-46.4854, -23.6413], [-46.4863, -23.6401], [-46.4845, -23.6343], [-46.4841, -23.6322], [-46.4828, -23.63], [-46.4829, -23.628], [-46.4836, -23.6257], [-46.4855, -23.623], [-46.4868, -23.6229], [-46.4878, -23.624], [-46.4905, -23.6246], [-46.4923, -23.6243], [-46.4931, -23.6254], [-46.4959, -23.6243], [-46.4972, -23.6249], [-46.4987, -23.6238], [-46.5001, -23.6238], [-46.5027, -23.6254], [-46.5062, -23.6258], [-46.5098, -23.6237], [-46.5116, -23.6218], [-46.5131, -23.619], [-46.5159, -23.6183], [-46.5178, -23.6173], [-46.5183, -23.6161], [-46.5207, -23.6152], [-46.5214, -23.614], [-46.5293, -23.6138], [-46.5311, -23.6147], [-46.5322, -23.6141], [-46.5345, -23.6144], [-46.5448, -23.6079], [-46.5467, -23.6057], [-46.548, -23.6061], [-46.5446, -23.6108], [-46.5461, -23.6112], [-46.5454, -23.6158], [-46.548, -23.6164], [-46.5503, -23.616], [-46.5498, -23.6175], [-46.5484, -23.619], [-46.545, -23.6246], [-46.5478, -23.6267], [-46.5492, -23.6292], [-46.5502, -23.6336], [-46.5507, -23.6381], [-46.5516, -23.6389], [-46.5519, -23.6417], [-46.5517, -23.6425], [-46.5547, -23.6441], [-46.5553, -23.6482], [-46.557, -23.6477], [-46.5578, -23.6459], [-46.5606, -23.6437], [-46.5618, -23.6456], [-46.5648, -23.6468], [-46.5672, -23.6502]]]}}, {"type": "Feature", "properties": {"codigo_ibge": "3548708", "nome": "Sao Bernardo do Campo"}, "geometry": {"type": "Polygon", "coordinates": [[[-46.6513, -23.731], [-46.652, -23.7308], [-46.6506, -23.7358], [-46.649, -23.7407], [-46.6474, -23.7505], [-46.647, -23.7537], [-46.6455, -23.7572], [-46.6436, -23.7594], [-46.6251, -23.7816], [-46.6235, -23.784], [-46.6228, -23.7862], [-46.6231, -23.802], [-46.6234, -23.8135], [-46.6244, -23.8188], [-46.6248, -23.8195], [-46.6277, -23.822], [-46.6324, -23.8272], [-46.6338, -23.8295], [-46.6342, -23.8317], [-46.6341, -23.8341], [-46.635, -23.836], [-46.6351, -23.8385], [-46.6326, -23.8511], [-46.6318, -23.8526], [-46.6295, -23.8545], [-46.6247, -23.8567], [-46.6227, -23.8584], [-46.6187, -23.8607], [-46.6169, -23.862], [-46.6165, -23.8651], [-46.617, -23.8695], [-46.6156, -23.8763], [-46.6171, -23.8788], [-46.6167, -23.8798], [-46.6176, -23.8844], [-46.618, -23.8852], [-46.6177, -23.8888], [-46.6165, -23.8921], [-46.616, -23.8948], [-46.6154, -23.8958], [-46.6157, -23.8972], [-46.6153, -23.9], [-46.6142, -23.9011], [-46.6133, -23.9055], [-46.6093, -23.9046], [-46.6117, -23.9079], [-46.6128, -23.9087], [-46.6116, -23.9107], [-46.6117, -23.9144], [-46.6088, -23.915], [-46.6087, -23.9159], [-46.61, -23.918], [-46.6101, -23.9191], [-46.6091, -23.9203], [-46.6091, -23.9229], [-46.6107, -23.9243], [-46.6094, -23.9277], [-46.6116, -23.928], [-46.6119, -23.9298], [-46.6144, -23.9314], [-46.6164, -23.9306], [-46.6169, -23.9336], [-46.6164, -23.9353], [-46.6154, -23.9368], [-46.6138, -23.9369], [-46.613, -23.9381], [-46.6114, -23.9379], [-46.6098, -23.937], [-46.6083, -23.9372], [-46.6071, -23.9387], [-46.6079, -23.9406], [-46.6088, -23.9413], [-46.6071, -23.9448], [-46.6078, -23.9458], [-46.6078, -23.9485], [-46.6092, -23.9488], [-46.6111, -23.9511], [-46.6079, -23.9535], [-46.6073, -23.9537], [-46.6073, -23.9565], [-46.6066, -23.9573], [-46.6088, -23.959], [-46.6097, -23.9603], [-46.6082, -23.9636], [-46.6104, -23.9659], [-46.6116, -23.9665], [-46.6119, -23.9678], [-46.6094, -23.9676], [-46.6073, -23.9658], [-46.6003, -23.9636], [-46.5981, -23.9633], [-46.5964, -23.9641], [-46.5953, -23.9654], [-46.5922, -23.9629], [-46.589, -23.9625], [-46.5882, -23.9613], [-46.5853, -23.9608], [-46.5846, -23.9594], [-46.5827, -23.9587], [-46.5813, -23.9566], [-46.5802, -23.9558], [-46.5779, -23.957], [-46.5756, -23.9543], [-46.5743, -23.9535], [-46.5722, -23.9532], [-46.5713, -23.9525], [-46.5696, -23.948], [-46.5695, -23.9468], [-46.5674, -23.9478], [-46.5677, -23.9538], [-46.5667, -23.9542], [-46.5645, -23.9529], [-46.5643, -23.9505], [-46.5635, -23.9487], [-46.561, -23.9465], [-46.5595, -23.947], [-46.5585, -23.946], [-46.5569, -23.9435], [-46.5566, -23.9417], [-46.5537, -23.9406], [-46.5524, -23.9406], [-46.5519, -23.9393], [-46.5523, -23.9373], [-46.5509, -23.9365], [-46.5503, -23.9347], [-46.5482, -23.9329], [-46.548, -23.9306], [-46.5455, -23.9301], [-46.5438, -23.9282], [-46.5445, -23.9274], [-46.5435, -23.926], [-46.5405, -23.9235], [-46.5375, -23.924], [-46.5349, -23.9228], [-46.5341, -23.9214], [-46.5332, -23.9187], [-46.5319, -23.9173], [-46.5299, -23.9166], [-46.526, -23.9158], [-46.5244, -23.9134], [-46.5232, -23.9133], [-46.5209, -23.9118], [-46.5225, -23.9099], [-46.5217, -23.9093], [-46.5223, -23.9077], [-46.5213, -23.9073], [-46.5201, -23.9055], [-46.5174, -23.9049], [-46.5154, -23.9058], [-46.5124, -23.9043], [-46.5082, -23.9042], [-46.5064, -23.9049], [-46.5031, -23.9045], [-46.5006, -23.9023], [-46.4993, -23.9024], [-46.497, -23.9011], [-46.4962, -23.8996], [-46.493, -23.8956], [-46.493, -23.8919], [-46.4923, -23.89], [-46.4902, -23.8882], [-46.4884, -23.8854], [-46.4858, -23.8835], [-46.4837, -23.8839], [-46.4844, -23.8857], [-46.4829, -23.8858], [-46.4813, -23.8842], [-46.4802, -23.8821], [-46.4778, -23.8791], [-46.477, -23.8794], [-46.4749, -23.8785], [-46.4743, -23.8766], [-46.473, -23.8748], [-46.4709, -23.8733], [-46.4694, -23.8729], [-46.4688, -23.8714], [-46.4677, -23.8707], [-46.4671, -23.8673], [-46.4664, -23.8656], [-46.4673, -23.8641], [-46.4668, -23.8627], [-46.4654, -23.861], [-46.4642, -23.8625], [-46.4599, -23.8661], [-46.4597, -23.8633], [-46.459, -23.8625], [-46.4586, -23.8604], [-46.4577, -23.8602], [-46.4571, -23.858], [-46.4561, -23.8572], [-46.455, -23.8546], [-46.4539, -23.8534], [-46.4521, -23.8526], [-46.4507, -23.8513], [-46.449, -23.8517], [-46.447, -23.8508], [-46.4435, -23.8502], [-46.4413, -23.8475], [-46.4398, -23.8444], [-46.438, -23.8422], [-46.4398, -23.8397], [-46.4417, -23.8407], [-46.4426, -23.8417], [-46.4438, -23.8409], [-46.442, -23.8388], [-46.442, -23.8373], [-46.4412, -23.8349], [-46.4394, -23.8334], [-46.439, -23.8318], [-46.4416, -23.8298], [-46.4439, -23.8307], [-46.4446, -23.8293], [-46.4373, -23.8285], [-46.4382, -23.827], [-46.4369, -23.8254], [-46.4344, -23.8241], [-46.4338, -23.8255], [-46.4313, -23.826], [-46.4263, -23.8251], [-46.4244, -23.8241], [-46.4227, -23.8226], [-46.4206, -23.8201], [-46.4151, -23.817], [-46.4144, -23.818], [-46.4116, -23.8167], [-46.4103, -23.8154], [-46.4113, -23.8148], [-46.4125, -23.8157], [-46.4149, -23.8157], [-46.417, -23.8147], [-46.4175, -23.8133], [-46.4202, -23.8136], [-46.421, -23.8125], [-46.4229, -23.8131], [-46.4242, -23.8125], [-46.4263, -23.8129], [-46.4281, -23.8118], [-46.4292, -23.8117], [-46.4317, -23.8101], [-46.4327, -23.8081], [-46.4317, -23.8052], [-46.4306, -23.8041], [-46.4302, -23.8024], [-46.4306, -23.8013], [-46.434, -23.8012], [-46.4373, -23.8001], [-46.4389, -23.8004], [-46.4418, -23.8], [-46.4495, -23.7958], [-46.4528, -23.7931], [-46.4554, -23.7905], [-46.4569, -23.7881], [-46.4573, -23.7866], [-46.457, -23.785], [-46.4589, -23.7842], [-46.4601, -23.7848], [-46.4618, -23.7828], [-46.464, -23.7813], [-46.4644, -23.7792], [-46.4656, -23.7782], [-46.4683, -23.7771], [-46.4711, -23.774], [-46.4736, -23.7731], [-46.475, -23.7715], [-46.4756, -23.7689], [-46.4768, -23.7669], [-46.4786, -23.7654], [-46.4818, -23.7639], [-46.4844, -23.7622], [-46.4891, -23.7568], [-46.4953, -23.7503], [-46.4965, -23.7478], [-46.4994, -23.746], [-46.501, -23.7463], [-46.5025, -23.7449], [-46.504, -23.7448], [-46.5065, -23.7433], [-46.5074, -23.745], [-46.5093, -23.7466], [-46.5117, -23.7477], [-46.5133, -23.7468], [-46.5145, -23.7476], [-46.5184, -23.7481], [-46.5195, -23.7494], [-46.5212, -23.7491], [-46.5231, -23.7501], [-46.5252, -23.7497], [-46.5279, -23.7484], [-46.5276, -23.7471], [-46.5256, -23.7456], [-46.523, -23.7461], [-46.5211, -23.7458], [-46.5192, -23.7444], [-46.5175, -23.7422], [-46.5185, -23.74], [-46.5177, -23.7379], [-46.5194, -23.7358], [-46.5203, -23.7353], [-46.52, -23.7339], [-46.5178, -23.7312], [-46.5169, -23.7278], [-46.5177, -23.7244], [-46.5174, -23.7203], [-46.5184, -23.718], [-46.5203, -23.7165], [-46.5219, -23.7147], [-46.5204, -23.7115], [-46.5173, -23.7097], [-46.5177, -23.7071], [-46.5168, -23.7054], [-46.5178, -23.7041], [-46.5193, -23.7037], [-46.5201, -23.7006], [-46.522, -23.7025], [-46.5237, -23.7014], [-46.5263, -23.7021], [-46.5291, -23.7034], [-46.5301, -23.7016], [-46.5322, -23.701], [-46.5341, -23.6992], [-46.5342, -23.6978], [-46.5369, -23.6963], [-46.5369, -23.6941], [-46.5377, -23.6905], [-46.5392, -23.6889], [-46.5395, -23.6875], [-46.5426, -23.6849], [-46.5451, -23.6838], [-46.5498, -23.6847], [-46.5532, -23.6837], [-46.5546, -23.6809], [-46.5546, -23.6794], [-46.5536, -23.6784], [-46.5532, -23.6762], [-46.5532, -23.6745], [-46.554, -23.6721], [-46.5531, -23.6694], [-46.5531, -23.6676], [-46.5536, -23.6664], [-46.5598, -23.6577], [-46.5613, -23.6552], [-46.5629, -23.6538], [-46.5637, -23.6522], [-46.5656, -23.6506], [-46.5672, -23.6502], [-46.5713, -23.6493], [-46.5731, -23.6506], [-46.5746, -23.65], [-46.5761, -23.6481], [-46.5805, -23.6434], [-46.5834, -23.641], [-46.5846, -23.6452], [-46.59, -23.6489], [-46.5931, -23.6507], [-46.5955, -23.6517], [-46.5966, -23.6529], [-46.5989, -23.653], [-46.6022, -23.6543], [-46.6038, -23.6561], [-46.6068, -23.6563], [-46.6102, -23.6586], [-46.6144, -23.6603], [-46.6163, -23.658], [-46.6164, -23.6593], [-46.6148, -23.6622], [-46.6131, -23.6634], [-46.6131, -23.6663], [-46.6103, -23.6683], [-46.6091, -23.6695], [-46.6058, -23.6674], [-46.6049, -23.6656], [-46.6018, -23.6628], [-46.6002, -23.6626], [-46.599, -23.6632], [-46.5963, -23.6634], [-46.598, -23.6668], [-46.5991, -23.6684], [-46.6001, -23.6708], [-46.5913, -23.6773], [-46.5879, -23.6761], [-46.5865, -23.6741], [-46.5824, -23.6724], [-46.5778, -23.673], [-46.5793, -23.6759], [-46.5806, -23.6773], [-46.5791, -23.6788], [-46.5786, -23.6804], [-46.58, -23.6833], [-46.5802, -23.685], [-46.5791, -23.6875], [-46.5788, -23.69], [-46.5812, -23.6926], [-46.5843, -23.6938], [-46.5869, -23.697], [-46.5888, -23.6985], [-46.5885, -23.6994], [-46.5898, -23.7008], [-46.5898, -23.7022], [-46.5909, -23.705], [-46.5903, -23.7059], [-46.5911, -23.7072], [-46.5935, -23.7091], [-46.597, -23.7109], [-46.5991, -23.7127], [-46.6006, -23.7163], [-46.602, -23.7174], [-46.6042, -23.7178], [-46.6049, -23.7185], [-46.605, -23.7202], [-46.6062, -23.7239], [-46.6061, -23.727], [-46.607, -23.728], [-46.6055, -23.7313], [-46.6076, -23.7335], [-46.6093, -23.7339], [-46.6114, -23.7374], [-46.6138, -23.738], [-46.6163, -23.7382], [-46.6174, -23.7375], [-46.6196, -23.739], [-46.623, -23.7372], [-46.6246, -23.736], [-46.6256, -23.7367], [-46.6274, -23.7369], [-46.6288, -23.7354], [-46.6311, -23.7351], [-46.6339, -23.7362], [-46.636, -23.7338], [-46.6383, -23.7339], [-46.6404, -23.7316], [-46.6428, -23.7322], [-46.6442, -23.7318], [-46.6466, -23.732], [-46.6513, -23.731]]]}}, {"type": "Feature", "properties": {"codigo_ibge": "3548807", "nome": "Sao Caetano do Sul"}, "geometry": {"type": "Polygon", "coordinates": [[[-46.548, -23.6061], [-46.5497, -23.6056], [-46.5507, -23.6061], [-46.5533, -23.609], [-46.5543, -23.6107], [-46.5566, -23.612], [-46.558, -23.6118], [-46.5654, -23.6073], [-46.5683, -23.6051], [-46.5748, -23.6011], [-46.5775, -23.6003], [-46.5788, -23.6008], [-46.5794, -23.6019], [-46.5793, -23.6045], [-46.5822, -23.6208], [-46.5831, -23.626], [-46.5814, -23.6288], [-46.5824, -23.6325], [-46.5846, -23.6341], [-46.5849, -23.6353], [-46.5834, -23.641], [-46.5805, -23.6434], [-46.5761, -23.6481], [-46.5746, -23.65], [-46.5731, -23.6506], [-46.5713, -23.6493], [-46.5672, -23.6502], [-46.5648, -23.6468], [-46.5618, -23.6456], [-46.5606, -23.6437], [-46.5578, -23.6459], [-46.557, -23.6477], [-46.5553, -23.6482], [-46.5547, -23.6441], [-46.5517, -23.6425], [-46.5519, -23.6417], [-46.5516, -23.6389], [-46.5507, -23.6381], [-46.5502, -23.6336], [-46.5492, -23.6292], [-46.5478, -23.6267], [-46.545, -23.6246], [-46.5484, -23.619], [-46.5498, -23.6175], [-46.5503, -23.616], [-46.548, -23.6164], [-46.5454, -23.6158], [-46.5461, -23.6112], [-46.5446, -23.6108], [-46.548, -23.6061]]]}}, {"type": "Feature", "properties": {"codigo_ibge": "3513801", "nome": "Diadema"}, "geometry": {"type": "Polygon", "coordinates": [[[-46.6513, -23.731], [-46.6466, -23.732], [-46.6442, -23.7318], [-46.6428, -23.7322], [-46.6404, -23.7316], [-46.6383, -23.7339], [-46.636, -23.7338], [-46.6339, -23.7362], [-46.6311, -23.7351], [-46.6288, -23.7354], [-46.6274, -23.7369], [-46.6256, -23.7367], [-46.6246, -23.736], [-46.623, -23.7372], [-46.6196, -23.739], [-46.6174, -23.7375], [-46.6163, -23.7382], [-46.6138, -23.738], [-46.6114, -23.7374], [-46.6093, -23.7339], [-46.6076, -23.7335], [-46.6055, -23.7313], [-46.607, -23.728], [-46.6061, -23.727], [-46.6062, -23.7239], [-46.605, -23.7202], [-46.6049, -23.7185], [-46.6042, -23.7178], [-46.602, -23.7174], [-46.6006, -23.7163], [-46.5991, -23.7127], [-46.597, -23.7109], [-46.5935, -23.7091], [-46.5911, -23.7072], [-46.5903, -23.7059], [-46.5909, -23.705], [-46.5898, -23.7022], [-46.5898, -23.7008], [-46.5885, -23.6994], [-46.5888, -23.6985], [-46.5869, -23.697], [-46.5843, -23.6938], [-46.5812, -23.6926], [-46.5788, -23.69], [-46.5791, -23.6875], [-46.5802, -23.685], [-46.58, -23.6833], [-46.5786, -23.6804], [-46.5791, -23.6788], [-46.5806, -23.6773], [-46.5793, -23.6759], [-46.5778, -23.673], [-46.5824, -23.6724], [-46.5865, -23.6741], [-46.5879, -23.6761], [-46.5913, -23.6773], [-46.6001, -23.6708], [-46.5991, -23.6684], [-46.598, -23.6668], [-46.5963, -23.6634], [-46.599, -23.6632], [-46.6002, -23.6626], [-46.6018, -23.6628], [-46.6049, -23.6656], [-46.6058, -23.6674], [-46.6091, -23.6695], [-46.6103, -23.6683], [-46.6131, -23.6663], [-46.6131, -23.6634], [-46.6148, -23.6622], [-46.6164, -23.6593], [-46.6163, -23.658], [-46.6172, -23.6573], [-46.6197, -23.6584], [-46.62, -23.6593], [-46.6224, -23.6605], [-46.6228, -23.6613], [-46.6251, -23.6593], [-46.6264, -23.6596], [-46.6268, -23.6632], [-46.6268, -23.666], [-46.6271, -23.6685], [-46.6285, -23.6709], [-46.6311, -23.6729], [-46.6305, -23.6771], [-46.6306, -23.6799], [-46.6333, -23.6816], [-46.6336, -23.6824], [-46.633, -23.6845], [-46.6339, -23.688], [-46.6357, -23.6899], [-46.6351, -23.6913], [-46.6326, -23.6917], [-46.6325, -23.6932], [-46.6316, -23.6939], [-46.6317, -23.6964], [-46.6289, -23.6979], [-46.6285, -23.7003], [-46.6273, -23.701], [-46.6263, -23.7029], [-46.625, -23.7021], [-46.624, -23.7025], [-46.6244, -23.7052], [-46.6229, -23.7054], [-46.6212, -23.7072], [-46.6185, -23.7073], [-46.617, -23.7084], [-46.6164, -23.7105], [-46.6182, -23.7127], [-46.6225, -23.7158], [-46.6257, -23.7164], [-46.6276, -23.7163], [-46.6302, -23.7192], [-46.6322, -23.7209], [-46.6365, -23.7253], [-46.6403, -23.7273], [-46.6465, -23.7289], [-46.6501, -23.7301], [-46.6513, -23.731]]]}}, {"type": "Feature", "properties": {"codigo_ibge": "3529401", "nome": "Maua"}, "geometry": {"type": "Polygon", "coordinates": [[[-46.475, -23.7183], [-46.4761, -23.7168], [-46.4754, -23.7162], [-46.4693, -23.7163], [-46.4684, -23.7142], [-46.4688, -23.7127], [-46.4658, -23.7103], [-46.4619, -23.7094], [-46.4613, -23.7069], [-46.46, -23.7061], [-46.4585, -23.7066], [-46.456, -23.7048], [-46.4515, -23.7038], [-46.4498, -23.7027], [-46.4495, -23.7013], [-46.4471, -23.6993], [-46.446, -23.6991], [-46.4452, -23.6977], [-46.4431, -23.6968], [-46.4427, -23.6959], [-46.4431, -23.6939], [-46.4422, -23.6924], [-46.4406, -23.6909], [-46.4369, -23.6882], [-46.4353, -23.6852], [-46.4324, -23.6854], [-46.4304, -23.6842], [-46.4307, -23.6825], [-46.4298, -23.6799], [-46.4282, -23.6795], [-46.4273, -23.6778], [-46.426, -23.6776], [-46.4244, -23.679], [-46.4222, -23.6784], [-46.4192, -23.6815], [-46.4174, -23.6815], [-46.4153, -23.6837], [-46.412, -23.6845], [-46.4118, -23.6817], [-46.41, -23.6803], [-46.4068, -23.6792], [-46.4049, -23.6756], [-46.4033, -23.6761], [-46.4014, -23.6747], [-46.3981, -23.6734], [-46.3965, -23.671], [-46.3936, -23.672], [-46.3926, -23.669], [-46.3931, -23.6679], [-46.393, -23.666], [-46.3945, -23.6644], [-46.3962, -23.66], [-46.3973, -23.6588], [-46.3973, -23.6562], [-46.3985, -23.6552], [-46.399, -23.6535], [-46.3984, -23.6511], [-46.3995, -23.6491], [-46.3995, -23.6468], [-46.4, -23.6447], [-46.3991, -23.6427], [-46.3958, -23.6381], [-46.3944, -23.6371], [-46.3945, -23.6349], [-46.3937, -23.6332], [-46.394, -23.6305], [-46.3922, -23.6293], [-46.3925, -23.6281], [-46.392, -23.6265], [-46.3899, -23.625], [-46.3887, -23.6236], [-46.3873, -23.6208], [-46.386, -23.6202], [-46.3839, -23.6177], [-46.3846, -23.6153], [-46.389, -23.6133], [-46.3909, -23.6122], [-46.3925, -23.6126], [-46.3948, -23.6125], [-46.3955, -23.6143], [-46.3977, -23.6158], [-46.3982, -23.619], [-46.4003, -23.6205], [-46.4014, -23.6224], [-46.4037, -23.6237], [-46.4051, -23.6232], [-46.4066, -23.6236], [-46.408, -23.6269], [-46.4074, -23.6287], [-46.4064, -23.6298], [-46.4068, -23.6318], [-46.4088, -23.6335], [-46.4102, -23.6339], [-46.4118, -23.6355], [-46.4138, -23.636], [-46.4145, -23.6392], [-46.4162, -23.6406], [-46.4184, -23.6414], [-46.4201, -23.641], [-46.4213, -23.6424], [-46.4211, -23.6437], [-46.4233, -23.6443], [-46.4245, -23.643], [-46.4243, -23.6407], [-46.4279, -23.637], [-46.4302, -23.6362], [-46.4317, -23.6374], [-46.4319, -23.6391], [-46.4315, -23.6411], [-46.4329, -23.6418], [-46.436, -23.6413], [-46.4383, -23.6419], [-46.4409, -23.6422], [-46.4431, -23.6439], [-46.4474, -23.6436], [-46.4525, -23.6424], [-46.454, -23.6409], [-46.4559, -23.6411], [-46.4582, -23.6419], [-46.4606, -23.6402], [-46.4631, -23.6388], [-46.4723, -23.6388], [-46.4737, -23.6373], [-46.4736, -23.6365], [-46.4751, -23.6346], [-46.4756, -23.6327], [-46.4754, -23.6308], [-46.4765, -23.6297], [-46.4772, -23.6262], [-46.4791, -23.6255], [-46.4822, -23.6237], [-46.4845, -23.6238], [-46.4855, -23.623], [-46.4836, -23.6257], [-46.4829, -23.628], [-46.4828, -23.63], [-46.4841, -23.6322], [-46.4845, -23.6343], [-46.4863, -23.6401], [-46.4854, -23.6413], [-46.483, -23.6466], [-46.4815, -23.6483], [-46.4824, -23.6495], [-46.4848, -23.6495], [-46.4867, -23.6488], [-46.4887, -23.6499], [-46.4922, -23.6511], [-46.4938, -23.653], [-46.4958, -23.6561], [-46.499, -23.6576], [-46.4974, -23.66], [-46.4972, -23.6611], [-46.4934, -23.66], [-46.4926, -23.661], [-46.4897, -23.662], [-46.4893, -23.664], [-46.4869, -23.6652], [-46.4854, -23.6677], [-46.4852, -23.6694], [-46.4826, -23.6707], [-46.4816, -23.6718], [-46.481, -23.6737], [-46.4803, -23.6805], [-46.4812, -23.6826], [-46.4833, -23.6849], [-46.4836, -23.6861], [-46.483, -23.6874], [-46.4853, -23.689], [-46.4857, -23.6901], [-46.4858, -23.6932], [-46.4865, -23.6942], [-46.4884, -23.6945], [-46.4895, -23.6952], [-46.4911, -23.6985], [-46.4903, -23.6998], [-46.4911, -23.704], [-46.4907, -23.7056], [-46.4891, -23.7068], [-46.4912, -23.7078], [-46.4917, -23.709], [-46.4899, -23.7113], [-46.4838, -23.7112], [-46.4831, -23.7124], [-46.4835, -23.7155], [-46.4814, -23.7182], [-46.479, -23.7194], [-46.4765, -23.7195], [-46.475, -23.7183]]]}}, {"type": "Feature", "properties": {"codigo_ibge": "3505708", "nome": "Barueri"}, "geometry": {"type": "Polygon", "coordinates": [[[-46.8007, -23.4704], [-46.8025, -23.4733], [-46.8052, -23.4743], [-46.8064, -23.4759], [-46.8068, -23.4779], [-46.8065, -23.4787], [-46.8071, -23.4806], [-46.8069, -23.4821], [-46.8082, -23.4846], [-46.8107, -23.4855], [-46.8123, -23.4844], [-46.8149, -23.4856], [-46.8152, -23.4839], [-46.8167, -23.4828], [-46.8195, -23.4823], [-46.8209, -23.4805], [-46.8224, -23.4816], [-46.8234, -23.481], [-46.8264, -23.4817], [-46.8272, -23.4824], [-46.8294, -23.4823], [-46.8321, -23.4828], [-46.8342, -23.4845], [-46.8353, -23.4846], [-46.837, -23.4829], [-46.8389, -23.4825], [-46.8398, -23.4833], [-46.8417, -23.483], [-46.8436, -23.482], [-46.8461, -23.4828], [-46.8487, -23.4809], [-46.8501, -23.4826], [-46.8526, -23.4839], [-46.8552, -23.4839], [-46.8574, -23.4833], [-46.8616, -23.4829], [-46.8629, -23.4812], [-46.8651, -23.4811], [-46.8663, -23.4794], [-46.8678, -23.479], [-46.8679, -23.4781], [-46.8697, -23.4774], [-46.8762, -23.4798], [-46.8776, -23.4801], [-46.8789, -23.4784], [-46.8792, -23.4764], [-46.8785, -23.4736], [-46.8792, -23.4708], [-46.8807, -23.4722], [-46.8822, -23.4727], [-46.8854, -23.473], [-46.8863, -23.4741], [-46.8884, -23.4747], [-46.8884, -23.4792], [-46.889, -23.4809], [-46.8887, -23.4841], [-46.8931, -23.484], [-46.8966, -23.485], [-46.8962, -23.4861], [-46.8985, -23.4896], [-46.899, -23.4911], [-46.9005, -23.4916], [-46.9029, -23.4914], [-46.9047, -23.4906], [-46.9068, -23.4906], [-46.9087, -23.4912], [-46.9126, -23.4913], [-46.9144, -23.4901], [-46.9149, -23.4884], [-46.9179, -23.4879], [-46.9197, -23.4871], [-46.924, -23.4887], [-46.9254, -23.4888], [-46.9288, -23.4879], [-46.9304, -23.4883], [-46.9314, -23.4871], [-46.933, -23.4869], [-46.9353, -23.4871], [-46.9366, -23.4878], [-46.9386, -23.4872], [-46.9397, -23.4863], [-46.9418, -23.486], [-46.9442, -23.4877], [-46.9447, -23.4862], [-46.9471, -23.4849], [-46.9483, -23.4852], [-46.9533, -23.4838], [-46.9541, -23.4861], [-46.9557, -23.4861], [-46.9565, -23.4878], [-46.9557, -23.4895], [-46.9573, -23.4913], [-46.9613, -23.4926], [-46.9635, -23.4937], [-46.9654, -23.497], [-46.9645, -23.4987], [-46.9616, -23.5], [-46.9586, -23.5032], [-46.9562, -23.5035], [-46.9549, -23.5046], [-46.9523, -23.5054], [-46.9521, -23.5048], [-46.9493, -23.5045], [-46.9478, -23.5053], [-46.9455, -23.5048], [-46.9443, -23.5073], [-46.9421, -23.5075], [-46.9357, -23.5114], [-46.9328, -23.5128], [-46.9296, -23.5132], [-46.9252, -23.5146], [-46.924, -23.5143], [-46.9231, -23.513], [-46.9218, -23.514], [-46.9206, -23.5141], [-46.9175, -23.5125], [-46.9152, -23.5125], [-46.9153, -23.5145], [-46.9144, -23.5167], [-46.9144, -23.5186], [-46.9132, -23.5202], [-46.9104, -23.5216], [-46.9086, -23.5216], [-46.9072, -23.52], [-46.9054, -23.5202], [-46.9032, -23.5195], [-46.9017, -23.5222], [-46.8999, -23.5239], [-46.897, -23.5249], [-46.8961, -23.5243], [-46.8941, -23.5258], [-46.8934, -23.5286], [-46.8918, -23.5315], [-46.8922, -23.5338], [-46.894, -23.5366], [-46.8946, -23.5385], [-46.894, -23.5398], [-46.8927, -23.5404], [-46.8911, -23.5422], [-46.8901, -23.5453], [-46.891, -23.5479], [-46.8907, -23.5501], [-46.8882, -23.5523], [-46.8864, -23.5532], [-46.8814, -23.5524], [-46.8806, -23.5512], [-46.8783, -23.5493], [-46.8764, -23.5485], [-46.8741, -23.5503], [-46.8726, -23.5504], [-46.8698, -23.5486], [-46.8669, -23.5482], [-46.8658, -23.547], [-46.8606, -23.5448], [-46.862, -23.5448], [-46.8622, -23.5428], [-46.8619, -23.5401], [-46.8626, -23.54], [-46.8618, -23.5373], [-46.8608, -23.5372], [-46.8619, -23.5346], [-46.8609, -23.5332], [-46.8625, -23.5305], [-46.8601, -23.5289], [-46.8605, -23.5262], [-46.8624, -23.5253], [-46.8624, -23.523], [-46.8615, -23.522], [-46.8602, -23.5226], [-46.8589, -23.5209], [-46.857, -23.52], [-46.8562, -23.5184], [-46.8544, -23.5166], [-46.847, -23.5162], [-46.8445, -23.5156], [-46.8413, -23.5139], [-46.8385, -23.5106], [-46.835, -23.511], [-46.8323, -23.5125], [-46.8322, -23.514], [-46.8282, -23.5172], [-46.8235, -23.5186], [-46.8223, -23.521], [-46.8201, -23.5219], [-46.8174, -23.5207], [-46.8172, -23.5185], [-46.8163, -23.5168], [-46.8132, -23.5138], [-46.8101, -23.5123], [-46.8085, -23.51], [-46.8083, -23.5065], [-46.8102, -23.5043], [-46.8111, -23.5023], [-46.812, -23.5018], [-46.8124, -23.4997], [-46.8118, -23.498], [-46.8088, -23.4944], [-46.8069, -23.4931], [-46.806, -23.4907], [-46.8056, -23.4887], [-46.8043, -23.4859], [-46.8016, -23.4847], [-46.8004, -23.4848], [-46.7998, -23.4837], [-46.8014, -23.482], [-46.8018, -23.4807], [-46.8013, -23.4786], [-46.7992, -23.4773], [-46.7987, -23.4765], [-46.7998, -23.4736], [-46.7995, -23.4714], [-46.8007, -23.4704]]]}}]}